1 41554U 16032A   22060.66067497  .00000044  00000-0  00000-0 0  9994
2 41554  63.9383 245.1912 0011853 211.6079 137.1061  2.13106050 44792
1 41554U 16032A   22060.98196243  .00000039  00000-0  00000-0 0  9995
2 41554  63.9383 245.1800 0011865 211.5520  23.6478  2.13106045 44808
1 41554U 16032A   22061.62492965  .00000032  00000-0  00000+0 0  9999
2 41554  63.9382 245.1576 0011871 211.5055 156.9671  2.13106034 44822
1 41554U 16032A   22061.62492965  .00000032  00000-0  00000-0 0  9990
2 41554  63.9382 245.1576 0011871 211.5055 156.9671  2.13106034 44822
1 41554U 16032A   22063.17679869  .00000026  00000-0  00000+0 0  9994
2 41554  63.9377 245.1035 0011888 211.5159 267.5228  2.13106024 44858
1 41554U 16032A   22063.50700697  .00000027  00000-0  00000-0 0  9997
2 41554  63.9378 245.0920 0011891 211.5135 160.8552  2.13106023 44864
1 41554U 16032A   22063.58534112  .00000027  00000-0  00000-0 0  9992
2 41554  63.9377 245.0892 0011924 211.4051 221.0596  2.13106013 44861
1 41554U 16032A   22064.00000862  .00000029  00000-0  00000-0 0  9992
2 41554  63.9377 245.0747 0011943 211.3940 179.1965  2.13106017 44875
1 41554U 16032A   22064.22888146  .00000030  00000-0  00000+0 0  9996
2 41554  63.9377 245.0667 0011940 211.3197 354.8583  2.13106021 44870
1 41554U 16032A   22064.22888146  .00000030  00000-0  00000-0 0  9997
2 41554  63.9377 245.0667 0011940 211.3197 354.8583  2.13106021 44870
1 41554U 16032A   22064.69734343  .00000034  00000-0  00000-0 0  9991
2 41554  63.9376 245.0504 0011940 211.3137 354.2600  2.13106021 44888
1 41554U 16032A   22065.64292858  .00000043  00000-0  00000+0 0  9996
2 41554  63.9374 245.0175 0011941 211.3041 359.7058  2.13106021 44905
1 41554U 16032A   22066.11595895  .00000049  00000-0  00000-0 0  9993
2 41554  63.9373 245.0011 0011941 211.2916   2.6188  2.13106021 44912
1 41554U 16032A   22067.67522360  .00000065  00000-0  00000+0 0  9999
2 41554  63.9370 244.9469 0011940 211.2759 118.8747  2.13106017 44947
1 41554U 16032A   22067.67522360  .00000065  00000-0  00000-0 0  9990
2 41554  63.9370 244.9469 0011940 211.2759 118.8747  2.13106017 44947
1 41554U 16032A   22068.62399802  .00000072  00000-0  00000-0 0  9997
2 41554  63.9368 244.9138 0011962 211.3218 126.7123  2.13106020 44964
1 41554U 16032A   22068.64478189  .00000072  00000-0  00000-0 0  9995
2 41554  63.9368 244.9131 0011957 211.3362 142.6430  2.13106021 44960
1 41554U 16032A   22069.36116139  .00000075  00000-0  00000-0 0  9992
2 41554  63.9367 244.8882 0011971 211.2086 332.3647  2.13106032 44981
1 41554U 16032A   22069.59540347  .00000075  00000-0  00000+0 0  9998
2 41554  63.9366 244.8800 0011966 211.2452 152.0346  2.13106033 44996
1 41554U 16032A   22069.59540347  .00000075  00000-0  00000-0 0  9999
2 41554  63.9366 244.8800 0011966 211.2452 152.0346  2.13106033 44996
1 41554U 16032A   22070.49439374  .00000075  00000-0  00000+0 0  9996
2 41554  63.9363 244.8489 0011969 211.1400 121.8315  2.13106065 45009
1 41554U 16032A   22070.76694017  .00000075  00000-0  00000-0 0  9994
2 41554  63.9366 244.8392 0012003 211.0631 331.0011  2.13106070 45015
1 41554U 16032A   22071.46983190  .00000072  00000-0  00000-0 0  9992
2 41554  63.9365 244.8147 0012023 211.0507 150.2603  2.13106082 45039
1 41554U 16032A   22071.70407844  .00000071  00000-0  00000+0 0  9994
2 41554  63.9365 244.8066 0012022 211.0419 329.9790  2.13106082 45032
1 41554U 16032A   22071.70407844  .00000071  00000-0  00000-0 0  9995
2 41554  63.9365 244.8066 0012022 211.0419 329.9790  2.13106082 45032
1 41554U 16032A   22072.21563022  .00000069  00000-0  00000-0 0  9990
2 41554  63.9364 244.7888 0012040 211.0228   2.4518  2.13106088 45048
1 41554U 16032A   22072.64129671  .00000066  00000-0  00000-0 0  9992
2 41554  63.9363 244.7739 0012042 211.0340 329.0047  2.13106091 45059
1 41554U 16032A   22073.12032744  .00000063  00000-0  00000+0 0  9996
2 41554  63.9362 244.7573 0012046 211.0428 336.5001  2.13106094 45062
1 41554U 16032A   22073.34420067  .00000062  00000-0  00000-0 0  9999
2 41554  63.9362 244.7495 0012049 211.0501 148.2445  2.13106098 45064
1 41554U 16032A   22073.57848240  .00000061  00000-0  00000-0 0  9990
2 41554  63.9361 244.7413 0012049 211.0510 327.9805  2.13106098 45070
1 41554U 16032A   22074.28886133  .00000057  00000-0  00000+0 0  9996
2 41554  63.9358 244.7165 0012067 211.0677 152.9545  2.13106105 45092
1 41554U 16032A   22074.28886133  .00000057  00000-0  00000-0 0  9997
2 41554  63.9358 244.7165 0012067 211.0677 152.9545  2.13106105 45092
1 41554U 16032A   22074.69287500  .00000054  00000-0  00000-0 0  9992
2 41554  63.9357 244.7024 0012070 211.0988 102.8758  2.13106114 45094
1 41554U 16032A   22075.21853740  .00000052  00000-0  00000-0 0  9994
2 41554  63.9356 244.6842 0012085 211.1128 146.1412  2.13106121 45101
1 41554U 16032A   22075.68716632  .00000050  00000-0  00000+0 0  9990
2 41554  63.9355 244.6678 0012118 211.1125 145.6660  2.13106131 45112
1 41554U 16032A   22075.68716632  .00000050  00000-0  00000-0 0  9991
2 41554  63.9355 244.6678 0012118 211.1125 145.6660  2.13106131 45112
1 41554U 16032A   22076.44654400  .00000049  00000-0  00000-0 0  9998
2 41554  63.9353 244.6414 0012123 211.0936   8.2663  2.13106132 45133
1 41554U 16032A   22076.63009065  .00000048  00000-0  00000-0 0  9999
2 41554  63.9353 244.6350 0012114 211.1199 149.0539  2.13106131 45140
1 41554U 16032A   22077.01410093  .00000048  00000-0  00000+0 0  9998
2 41554  63.9352 244.6217 0012135 211.0815  83.6984  2.13106136 45140
1 41554U 16032A   22077.56858214  .00000049  00000-0  00000-0 0  9991
2 41554  63.9351 244.6026 0012240 211.0526 149.1167  2.13106177 45161
1 41554U 16032A   22078.28521476  .00000051  00000-0  00000+0 0  9990
2 41554  63.9349 244.5777 0012239 211.0372 338.9201  2.13106165 45172
1 41554U 16032A   22078.28521476  .00000051  00000-0  00000-0 0  9991
2 41554  63.9349 244.5777 0012239 211.0372 338.9201  2.13106165 45172
1 41554U 16032A   22079.49605057  .00000056  00000-0  00000-0 0  9998
2 41554  63.9347 244.5357 0012272 211.0113 187.8795  2.13106205 45202
1 41554U 16032A   22079.49605057  .00000056  00000-0  00000+0 0  9997
2 41554  63.9347 244.5357 0012272 211.0113 187.8795  2.13106205 45202
1 41554U 16032A   22080.14043329  .00000060  00000-0  00000-0 0  9995
2 41554  63.9344 244.5130 0012289 211.0317 322.2195  2.13106235 45215
1 41554U 16032A   22080.87169524  .00000064  00000-0  00000+0 0  9994
2 41554  63.9345 244.4876 0012293 210.9762 163.2869  2.13106235 45232
1 41554U 16032A   22080.87169524  .00000064  00000-0  00000-0 0  9995
2 41554  63.9345 244.4876 0012293 210.9762 163.2869  2.13106235 45232
1 41554U 16032A   22081.79061133  .00000068  00000-0  00000-0 0  9998
2 41554  63.9343 244.4556 0012304 210.9970 148.2431  2.13106240 45244
1 41554U 16032A   22082.29191159  .00000069  00000-0  00000+0 0  9996
2 41554  63.9341 244.4382 0012305 210.9858 172.8432  2.13106238 45268
1 41554U 16032A   22082.29191159  .00000069  00000-0  00000-0 0  9997
2 41554  63.9341 244.4382 0012305 210.9858 172.8432  2.13106238 45268
1 41554U 16032A   22082.76277318  .00000069  00000-0  00000-0 0  9991
2 41554  63.9341 244.4218 0012314 210.9767 174.0894  2.13106239 45273
1 41554U 16032A   22083.23988487  .00000068  00000-0  00000-0 0  9999
2 41554  63.9340 244.4052 0012314 210.9541 180.1439  2.13106238 45281
1 41554U 16032A   22084.18109917  .00000061  00000-0  00000+0 0  9999
2 41554  63.9338 244.3725 0012325 210.9244 182.2570  2.13106232 45302
1 41554U 16032A   22084.18109917  .00000061  00000-0  00000-0 0  9990
2 41554  63.9338 244.3725 0012325 210.9244 182.2570  2.13106232 45302
1 41554U 16032A   22084.65297160  .00000057  00000-0  00000-0 0  9995
2 41554  63.9337 244.3560 0012322 210.9304 184.2634  2.13106231 45315
1 41554U 16032A   22085.31584433  .00000048  00000-0  00000-0 0  9991
2 41554  63.9336 244.3330 0012470 211.2335 332.5001  2.13106095 45326
1 41554U 16032A   22085.31584433  .00000048  00000-0  00000+0 0  9990
2 41554  63.9336 244.3330 0012470 211.2335 332.5001  2.13106095 45326
1 41554U 16032A   22085.64942179  .00000043  00000-0  00000-0 0  9997
2 41554  63.9336 244.3215 0012340 210.8883 228.7654  2.13106232 45331
1 41554U 16032A   22086.45233524  .00000030  00000-0  00000+0 0  9999
2 41554  63.9334 244.2935 0012318 210.8953 124.7384  2.13106210 45342
1 41554U 16032A   22086.45233524  .00000030  00000-0  00000-0 0  9990
2 41554  63.9334 244.2935 0012318 210.8953 124.7384  2.13106210 45342
1 41554U 16032A   22087.39212138  .00000014  00000-0  00000-0 0  9994
2 41554  63.9334 244.2609 0012318 210.9638 125.6567  2.13106195 45368
1 41554U 16032A   22087.42198080  .00000013  00000-0  00000-0 0  9996
2 41554  63.9333 244.2598 0012318 210.9587 148.5693  2.13106193 45369
1 41554U 16032A   22088.02689159  .00000004  00000-0  00000+0 0  9994
2 41554  63.9333 244.2388 0012335 210.9680 252.6368  2.13106188 45381
1 41554U 16032A   22088.38830115  .00000000  00000-0  00000-0 0  9990
2 41554  63.9332 244.2263 0012361 210.9363 169.9351  2.13106179 45392
1 41554U 16032A   22088.82655259 -.00000005  00000-0  00000-0 0  9999
2 41554  63.9332 244.2110 0012362 210.9348 146.1552  2.13106173 45391
1 41554U 16032A   22089.53972938 -.00000011  00000-0  00000+0 0  9990
2 41554  63.9331 244.1862 0012391 210.8821 333.3440  2.13106158 45412
1 41554U 16032A   22089.53972938 -.00000011  00000-0  00000-0 0  9991
2 41554  63.9331 244.1862 0012391 210.8821 333.3440  2.13106158 45412
1 41554U 16032A   22089.84243413 -.00000012  00000-0  00000-0 0  9995
2 41554  63.9331 244.1757 0012406 210.9101 205.5452  2.13106149 45428
1 41554U 16032A   22090.47827440 -.00000013  00000-0  00000-0 0  9995
2 41554  63.9328 244.1536 0012414 210.9148 333.3458  2.13106142 45439
1 41554U 16032A   22090.78126175 -.00000013  00000-0  00000-0 0  9996
2 41554  63.9327 244.1430 0012425 210.9398 205.7674  2.13106138 45448
1 41554U 16032A   22090.78126175 -.00000013  00000-0  00000+0 0  9995
2 41554  63.9327 244.1430 0012425 210.9398 205.7674  2.13106138 45448
